{
    "links": {
        "self": "http://www.neowsapp.com/rest/v1/neo/3836135?api_key=iIulBulltgU6a56xZRHN4H3l9WmuAYTsLGpBGhQ2"
    },
    "id": "3836135",
    "neo_reference_id": "3836135",
    "name": "(2018 VW5)",
    "designation": "2018 VW5",
    "nasa_jpl_url": "http://ssd.jpl.nasa.gov/sbdb.cgi?sstr=3836135",
    "absolute_magnitude_h": 24.2,
    "estimated_diameter": {
        "kilometers": {
            "estimated_diameter_min": 0.0384197891,
            "estimated_diameter_max": 0.0859092601
        },
        "meters": {
            "estimated_diameter_min": 38.4197891064,
            "estimated_diameter_max": 85.9092601232
        },
        "miles": {
            "estimated_diameter_min": 0.0238729428,
            "estimated_diameter_max": 0.0533815229
        },
        "feet": {
            "estimated_diameter_min": 126.0491808919,
            "estimated_diameter_max": 281.8545369825
        }
    },
    "is_potentially_hazardous_asteroid": false,
    "close_approach_data": [
        {
            "close_approach_date": "2018-11-30",
            "close_approach_date_full": "2018-Nov-30 12:47",
            "epoch_date_close_approach": 1543582020000,
            "relative_velocity": {
                "kilometers_per_second": "8.0107879247",
                "kilometers_per_hour": "28838.8365287743",
                "miles_per_hour": "17919.3315086709"
            },
            "miss_distance": {
                "astronomical": "0.0837906262",
                "lunar": "32.5945535918",
                "kilometers": "12534899.205486194",
                "miles": "7788825.1936657172"
            },
            "orbiting_body": "Earth"
        },
        {
            "close_approach_date": "2030-11-08",
            "close_approach_date_full": "2030-Nov-08 22:43",
            "epoch_date_close_approach": 1920408180000,
            "relative_velocity": {
                "kilometers_per_second": "15.031197711",
                "kilometers_per_hour": "54112.3117595996",
                "miles_per_hour": "33623.2861597357"
            },
            "miss_distance": {
                "astronomical": "0.284331194",
                "lunar": "110.604834466",
                "kilometers": "42535340.99695678",
                "miles": "26430235.309212364"
            },
            "orbiting_body": "Earth"
        },
        {
            "close_approach_date": "2183-11-19",
            "close_approach_date_full": "2183-Nov-19 02:42",
            "epoch_date_close_approach": 6749491320000,
            "relative_velocity": {
                "kilometers_per_second": "11.7172929757",
                "kilometers_per_hour": "42182.2547126204",
                "miles_per_hour": "26210.4126574057"
            },
            "miss_distance": {
                "astronomical": "0.1695016945",
                "lunar": "65.9361591605",
                "kilometers": "25357092.458590715",
                "miles": "15756166.630613267"
            },
            "orbiting_body": "Earth"
        },
        {
            "close_approach_date": "2195-11-04",
            "close_approach_date_full": "2195-Nov-04 07:36",
            "epoch_date_close_approach": 7126904160000,
            "relative_velocity": {
                "kilometers_per_second": "18.8562255352",
                "kilometers_per_hour": "67882.4119268622",
                "miles_per_hour": "42179.4908997772"
            },
            "miss_distance": {
                "astronomical": "0.4253531913",
                "lunar": "165.4623914157",
                "kilometers": "63631931.416182531",
                "miles": "39539048.7319636878"
            },
            "orbiting_body": "Earth"
        }
    ],
    "orbital_data": {
        "orbit_id": "8",
        "orbit_determination_date": "2018-12-08 06:25:24",
        "first_observation_date": "2018-11-08",
        "last_observation_date": "2018-12-07",
        "data_arc_in_days": 29,
        "observations_used": 40,
        "orbit_uncertainty": "7",
        "minimum_orbit_intersection": ".0784436",
        "jupiter_tisserand_invariant": "3.948",
        "epoch_osculation": "2459000.5",
        "eccentricity": ".4298732271735959",
        "semi_major_axis": "1.788423732299446",
        "inclination": "11.24937269771604",
        "ascending_node_longitude": "232.1509292272285",
        "orbital_period": "873.5827773017709",
        "perihelion_distance": "1.019628250942036",
        "perihelion_argument": "218.6654700808324",
        "aphelion_distance": "2.557219213656855",
        "perihelion_time": "2459348.299284982166",
        "mean_anomaly": "216.6732931934532",
        "mean_motion": ".4120960364075967",
        "equinox": "J2000",
        "orbit_class": {
            "orbit_class_type": "AMO",
            "orbit_class_description": "Near-Earth asteroid orbits similar to that of 1221 Amor",
            "orbit_class_range": "1.017 AU < q (perihelion) < 1.3 AU"
        }
    },
    "is_sentry_object": false
}